[Satellite]
VERSION=1.1
NAME=CENTAURI-2
NICKNAME=CENTAURI-2
TLE1=1 43722U 18096D   22342.49258579  .00074897  00000+0  11887-2 0  9995
TLE2=2 43722  97.3417  66.2842 0009901 136.2387 223.9653 15.53054583224948
STATUS=0
